{
    "links": {
        "self": "http://www.neowsapp.com/rest/v1/neo/3333957?api_key=iIulBulltgU6a56xZRHN4H3l9WmuAYTsLGpBGhQ2"
    },
    "id": "3333957",
    "neo_reference_id": "3333957",
    "name": "(2006 KP21)",
    "designation": "2006 KP21",
    "nasa_jpl_url": "http://ssd.jpl.nasa.gov/sbdb.cgi?sstr=3333957",
    "absolute_magnitude_h": 23.6,
    "estimated_diameter": {
        "kilometers": {
            "estimated_diameter_min": 0.0506471459,
            "estimated_diameter_max": 0.1132504611
        },
        "meters": {
            "estimated_diameter_min": 50.6471458835,
            "estimated_diameter_max": 113.2504610618
        },
        "miles": {
            "estimated_diameter_min": 0.0314706677,
            "estimated_diameter_max": 0.0703705522
        },
        "feet": {
            "estimated_diameter_min": 166.1651821003,
            "estimated_diameter_max": 371.5566426699
        }
    },
    "is_potentially_hazardous_asteroid": false,
    "close_approach_data": [
        {
            "close_approach_date": "2006-04-30",
            "close_approach_date_full": "2006-Apr-30 06:28",
            "epoch_date_close_approach": 1146378480000,
            "relative_velocity": {
                "kilometers_per_second": "11.7483754586",
                "kilometers_per_hour": "42294.1516508466",
                "miles_per_hour": "26279.9410632719"
            },
            "miss_distance": {
                "astronomical": "0.1323662019",
                "lunar": "51.4904525391",
                "kilometers": "19801701.864229953",
                "miles": "12304206.9847732314"
            },
            "orbiting_body": "Earth"
        }
    ],
    "orbital_data": {
        "orbit_id": "8",
        "orbit_determination_date": "2017-04-06 09:08:37",
        "first_observation_date": "2006-05-23",
        "last_observation_date": "2006-05-26",
        "data_arc_in_days": 3,
        "observations_used": 23,
        "orbit_uncertainty": "9",
        "minimum_orbit_intersection": ".0560579",
        "jupiter_tisserand_invariant": "3.590",
        "epoch_osculation": "2453879.5",
        "eccentricity": ".520086883586492",
        "semi_major_axis": "2.067256765158837",
        "inclination": "5.042583078215843",
        "ascending_node_longitude": "237.1016742147078",
        "orbital_period": "1085.65055730055",
        "perihelion_distance": ".9921036365942848",
        "perihelion_argument": "299.8316699106298",
        "aphelion_distance": "3.142409893723389",
        "perihelion_time": "2453824.798712642145",
        "mean_anomaly": "18.13885998252767",
        "mean_motion": ".3315984112743731",
        "equinox": "J2000",
        "orbit_class": {
            "orbit_class_type": "APO",
            "orbit_class_description": "Near-Earth asteroid orbits which cross the Earth’s orbit similar to that of 1862 Apollo",
            "orbit_class_range": "a (semi-major axis) > 1.0 AU; q (perihelion) < 1.017 AU"
        }
    },
    "is_sentry_object": false
}